ONEWEB-0298             
1 49087U 21075N   23224.39756000 -.00016002  00000+0 -41301-1 0  9996
2 49087  87.9176 212.4427 0002464  71.4583 288.6816 13.17679794 97687
ONEWEB-0299             
1 49088U 21075P   23223.71634363  .00000125  00000+0  28813-3 0  9991
2 49088  87.9169 212.6133 0002191  78.6581 281.4797 13.17624076 97558
ONEWEB-0300             
1 49089U 21075Q   23223.69510474  .00000417  00000+0  11228-2 0  9990
2 49089  87.9027 197.4722 0001896  81.0027 279.1316 13.12441430 99717
ONEWEB-0301             
1 49090U 21075R   23223.98522520  .00000294  00000+0  78156-3 0  9996
2 49090  87.9025 197.4159 0001729  89.7705 270.3621 13.12445077 99111
ONEWEB-0302             
1 49091U 21075S   23223.97358063 -.00000030  00000+0 -11835-3 0  9996
2 49091  87.9023 197.4154 0002280  81.7823 278.3564 13.12444101 99101
ONEWEB-0304             
1 49092U 21075T   23223.99742594 -.00000628  00000+0 -16461-2 0  9997
2 49092  87.9179 212.5297 0002113  80.6787 279.4583 13.17787255 97570
ONEWEB-0305             
1 49093U 21075U   23224.06242533  .00000060  00000+0  12249-3 0  9994
2 49093  87.9175 212.5479 0002247  73.3127 286.8251 13.17673708 97609
ONEWEB-0308             
1 49094U 21075V   23223.43458488 -.00000147  00000+0 -44479-3 0  9991
2 49094  87.9025 197.5243 0001946  84.0737 276.0613 13.12447370 99048
